{"type":"FeatureCollection", "features": [
{"type":"Feature","geometry":{"type":"MultiPolygon","coordinates":[[[[73.0542,8.2734],[73.0785,8.3243],[73.0477,8.2755],[73.0178,8.2754],[73.0427,8.264],[73.0542,8.2734]]],[[[73.6478,10.0724],[73.6512,10.102],[73.635,10.0713],[73.6413,10.0572],[73.6478,10.0724]]],[[[73.6604,10.1543],[73.6601,10.1292],[73.6643,10.1411],[73.6604,10.1543]]],[[[72.6442,10.5784],[72.6172,10.5422],[72.6497,10.5635],[72.6442,10.5784]]],[[[73.6681,10.8176],[73.6599,10.8109],[73.6718,10.8039],[73.7018,10.8143],[73.6681,10.8176]]],[[[72.2043,10.8786],[72.1947,10.8714],[72.1701,10.8183],[72.2043,10.8786]]],[[[72.7203,11.1139],[72.7337,11.1363],[72.7186,11.1273],[72.7203,11.1139]]],[[[72.7621,11.1829],[72.7902,11.2604],[72.7795,11.2426],[72.7621,11.1829]]],[[[73.0083,11.4696],[73.0099,11.4875],[72.9994,11.4983],[73.0083,11.4696]]],[[[72.7121,11.6867],[72.7166,11.7039],[72.7058,11.6826],[72.7121,11.6867]]]]},"properties":{"dt_code":"587","district":"Lakshadweep","st_code":"31","year":"2011_c","st_nm":"Lakshadweep"}}
]}